GLOBALSTAR M094         
1 39074U 13005C   25286.95277987 -.00000092  00000+0  63649-4 0  9992
2 39074  51.9948 180.5107 0000785  90.2191 269.8766 12.62264272587373
GLOBALSTAR M096         
1 39075U 13005D   25286.80761779 -.00000085  00000+0  10740-3 0  9999
2 39075  52.0065 229.5590 0000670  85.5482 274.5461 12.62267535586277
GLOBALSTAR M078         
1 39076U 13005E   25286.54411665 -.00000056  00000+0  26492-3 0  9996
2 39076  51.9880 314.7156 0001277  84.6207 275.4805 12.62261256584864
GLOBALSTAR M095         
1 39077U 13005F   25286.80767185 -.00000085  00000+0  10753-3 0  9992
2 39077  52.0086 311.1658 0000816 107.9630 252.1326 12.62260707584758
GLOBALSTAR M087         
1 52888U 22064A   25286.90011635 -.00000103  00000+0  34531-5 0  9998
2 52888  51.9979  92.2597 0001019 105.1429 254.9550 12.62289321160036
